[{"OBJECT_NAME":"ONEWEB-0626","OBJECT_ID":"2023-004AD","EPOCH":"2026-03-09T21:37:43.681728","MEAN_MOTION":13.17651985,"ECCENTRICITY":0.00022197,"INCLINATION":87.9145,"RA_OF_ASC_NODE":25.5901,"ARG_OF_PERICENTER":80.7437,"MEAN_ANOMALY":279.3945,"EPHEMERIS_TYPE":0,"CLASSIFICATION_TYPE":"U","NORAD_CAT_ID":55167,"ELEMENT_SET_NO":999,"REV_AT_EPOCH":15450,"BSTAR":-0.0028298824,"MEAN_MOTION_DOT":-1.086e-5,"MEAN_MOTION_DDOT":0},{"OBJECT_NAME":"SCOUT A DEB","OBJECT_ID":"1965-109D","EPOCH":"2026-03-09T15:44:10.237056","MEAN_MOTION":13.51253065,"ECCENTRICITY":0.02470313,"INCLINATION":89.0567,"RA_OF_ASC_NODE":316.3653,"ARG_OF_PERICENTER":331.8662,"MEAN_ANOMALY":26.932,"EPHEMERIS_TYPE":0,"CLASSIFICATION_TYPE":"U","NORAD_CAT_ID":2226,"ELEMENT_SET_NO":999,"REV_AT_EPOCH":94024,"BSTAR":0.00028079687,"MEAN_MOTION_DOT":2.3e-6,"MEAN_MOTION_DDOT":0}]
